COSMOS 2419 (714)       
1 28915U 05050A   16354.09565804 -.00000048  00000-0  00000+0 0  9993
2 28915  65.4087  71.9246 0014583 351.3790 165.6893  2.13108984 85495
COSMOS 2425 (716)       
1 29670U 06062A   16354.28306653 -.00000037  00000-0  10000-3 0  9995
2 29670  65.5501 310.9264 0022240 339.2914  16.7589  2.13104978 77694
COSMOS 2426 (717)       
1 29671U 06062B   16354.27687697 -.00000037  00000-0  10000-3 0  9995
2 29671  65.5673 311.0116 0016524 173.3436  37.5477  2.13103090 77700
COSMOS 2424 (715)       
1 29672U 06062C   16354.47314488 -.00000037  00000-0  10000-3 0  9993
2 29672  65.5518 310.9305 0015856 172.4448   4.8635  2.13102132 77706
COSMOS 2433 (720)       
1 32275U 07052A   16354.47084297 -.00000052  00000-0  10000-3 0  9995
2 32275  65.4240  71.6873 0003078 242.5484  89.7260  2.13105005 71211
COSMOS 2432 (719)       
1 32276U 07052B   16354.18116006 -.00000049  00000-0  10000-3 0  9994
2 32276  65.4366  71.7653 0010610 333.4868  89.8884  2.13104104 71216
COSMOS 2434 (721)       
1 32393U 07065A   16354.38031378 -.00000038  00000-0  00000+0 0  9991
2 32393  65.1676 310.1577 0001648 134.4343  19.0702  2.13102843 69927
COSMOS 2436 (723)       
1 32395U 07065C   16353.28055662 -.00000035  00000-0  10000-3 0  9995
2 32395  65.1747 310.2390 0014301 352.5109  85.0629  2.13103394 69838
COSMOS 2443 (725)       
1 33379U 08046B   16354.14460632 -.00000050  00000-0  00000+0 0  9993
2 33379  65.3529  71.0973 0016738 185.6663 158.9447  2.13101920 64078
COSMOS 2456 (730)       
1 36111U 09070A   16353.78257773  .00000059  00000-0  00000+0 0  9995
2 36111  64.1782 189.7471 0003424 345.5764 239.7647  2.13102976 54576
COSMOS 2457 (733)       
1 36112U 09070B   16354.42616824  .00000065  00000-0  00000+0 0  9991
2 36112  64.1617 189.6476 0007164 148.9924 339.4958  2.13101688 54590
COSMOS 2458 (734)       
1 36113U 09070C   16354.22395981  .00000063  00000-0  10000-3 0  9991
2 36113  64.1669 189.6607 0002886  56.9195 324.1265  2.13101972 54596
COSMOS 2459 (731)       
1 36400U 10007A   16354.20256301 -.00000051  00000-0  10000-3 0  9990
2 36400  65.3320  70.8235 0026666 352.1287 358.0009  2.13102230 52931
COSMOS 2461 (735)       
1 36401U 10007B   16354.08444278 -.00000050  00000-0  10000-3 0  9998
2 36401  65.3246  70.8067 0005880  78.6197  91.4897  2.13102188 52932
COSMOS 2460 (732)       
1 36402U 10007C   16354.08692079 -.00000050  00000-0  10000-3 0  9993
2 36402  65.3158  70.7825 0000860 191.4175  22.1690  2.13101895 52935
COSMOS 2465 (737)       
1 37138U 10041B   16354.21202394 -.00000038  00000-0  00000+0 0  9991
2 37138  64.7665 310.2420 0034874 175.5790 252.2019  2.13103428 49019
COSMOS 2464 (736)       
1 37139U 10041C   16353.73657378 -.00000037  00000-0  00000+0 0  9993
2 37139  64.7730 310.2566 0022765   5.9579 241.4058  2.13102657 49006
COSMOS 2471 (701K)      
1 37372U 11009A   16354.18310256 -.00000051  00000-0  00000+0 0  9994
2 37372  65.3131  70.7271 0008468 230.5496 190.0386  2.13102875 45210
COSMOS 2474 (742)       
1 37829U 11055A   16354.39135476  .00000064  00000-0  00000+0 0  9997
2 37829  64.5027 190.2152 0006064 244.5640 308.3909  2.13101945 40581
COSMOS 2476 (744)       
1 37867U 11064A   16353.35976201  .00000057  00000-0  00000+0 0  9995
2 37867  64.4826 190.3269 0015206 242.0183 285.4169  2.13101994 39914
COSMOS 2477 (745)       
1 37868U 11064B   16353.40858433  .00000057  00000-0  00000+0 0  9998
2 37868  64.4899 190.3678 0013137 243.3154 140.8141  2.13101894 39870
COSMOS 2475 (743)       
1 37869U 11064C   16353.57515720  .00000058  00000-0  00000+0 0  9997
2 37869  64.4991 190.3519 0018069 274.3958 193.8261  2.13102190 39885
COSMOS 2485 (747)       
1 39155U 13019A   16354.19243942  .00000062  00000-0  00000+0 0  9997
2 39155  64.6516 190.2894 0015690 235.9176 255.4158  2.13102046 28403
COSMOS 2492 (754)       
1 39620U 14012A   16354.11134661 -.00000050  00000-0  10000-3 0  9990
2 39620  65.2052  70.7430 0014114 329.3248 133.5140  2.13103509 21357
COSMOS 2500 (755)       
1 40001U 14032A   16353.79075057 -.00000047  00000-0  00000+0 0  9994
2 40001  65.1460  70.7647 0007055 204.0707 236.2220  2.13102837 19562
COSMOS 2501 (702K)      
1 40315U 14075A   16353.62307943 -.00000038  00000-0  00000+0 0  9993
2 40315  64.5004 311.6654 0015584 215.8793 263.9355  2.13100594 15967
COSMOS 2514 (751)       
1 41330U 16008A   16354.09256954 -.00000050  00000-0  00000+0 0  9990
2 41330  64.9463  70.9436 0010234 212.8486 278.5140  2.13103481  6731
COSMOS 2516 (753)       
1 41554U 16032A   16354.34513779 -.00000039  00000-0  00000+0 0  9991
2 41554  64.7191 311.3550 0013157 231.8422 346.9074  2.13101650  4349
